0 SL-12 R/B(2)
1 26557U 00059D   13282.23914825 -.00000048  00000-0  00000+0 0  9272
2 26557 014.4338 212.7928 5152214 220.6055 329.1892 01.86633930 88796
0 SL-12 R/B(2)
1 26557U 00059D   13286.58192903 -.00000080  00000-0  00000+0 0  9286
2 26557 014.4252 212.3004 5152910 221.4994 007.0094 01.86634166 88873
0 SL-12 R/B(2)
1 26557U 00059D   13289.72800484 -.00000125  00000-0  00000+0 0  9296
2 26557 014.4193 211.9461 5153431 222.1442 320.7944 01.86634218 88938
0 SL-12 R/B(2)
1 26557U 00059D   13291.77522431 -.00000131  00000-0  00000+0 0  9306
2 26557 014.4154 211.7159 5153775 222.5638 256.2826 01.86634165 88976
